CCSDS_OMM_VERS = 2.0
CREATION_DATE  = 
ORIGINATOR     = 

OBJECT_NAME    = KUIPER-00197
OBJECT_ID      = 2026-030F
CENTER_NAME    = EARTH
REF_FRAME      = TEME
TIME_SYSTEM    = UTC
MEAN_ELEMENT_THEORY = SGP/SGP4

EPOCH          = 2026-03-08T13:56:29.802336
MEAN_MOTION    = 15.36323025
ECCENTRICITY   = .00013976
INCLINATION    = 51.8832
RA_OF_ASC_NODE = 224.3965
ARG_OF_PERICENTER = 60.9633
MEAN_ANOMALY   = 299.1494

EPHEMERIS_TYPE = 0
CLASSIFICATION_TYPE = U
NORAD_CAT_ID   = 67769
ELEMENT_SET_NO = 999
REV_AT_EPOCH   = 492
BSTAR          = .13095874E-2
MEAN_MOTION_DOT = .47007E-3
MEAN_MOTION_DDOT = 0

CCSDS_OMM_VERS = 2.0
CREATION_DATE  = 
ORIGINATOR     = 

OBJECT_NAME    = KUIPER-00198
OBJECT_ID      = 2026-030G
CENTER_NAME    = EARTH
REF_FRAME      = TEME
TIME_SYSTEM    = UTC
MEAN_ELEMENT_THEORY = SGP/SGP4

EPOCH          = 2026-03-08T14:04:31.618848
MEAN_MOTION    = 15.36025333
ECCENTRICITY   = .00033549
INCLINATION    = 51.8807
RA_OF_ASC_NODE = 224.4266
ARG_OF_PERICENTER = 43.3690
MEAN_ANOMALY   = 316.7560

EPHEMERIS_TYPE = 0
CLASSIFICATION_TYPE = U
NORAD_CAT_ID   = 67770
ELEMENT_SET_NO = 999
REV_AT_EPOCH   = 492
BSTAR          = .88455229E-3
MEAN_MOTION_DOT = .31258E-3
MEAN_MOTION_DDOT = 0

CCSDS_OMM_VERS = 2.0
CREATION_DATE  = 
ORIGINATOR     = 

OBJECT_NAME    = KUIPER-00199
OBJECT_ID      = 2026-030H
CENTER_NAME    = EARTH
REF_FRAME      = TEME
TIME_SYSTEM    = UTC
MEAN_ELEMENT_THEORY = SGP/SGP4

EPOCH          = 2026-03-08T14:40:54.237504
MEAN_MOTION    = 15.34340151
ECCENTRICITY   = .00106159
INCLINATION    = 51.8817
RA_OF_ASC_NODE = 224.5869
ARG_OF_PERICENTER = 58.0903
MEAN_ANOMALY   = 302.1114

EPHEMERIS_TYPE = 0
CLASSIFICATION_TYPE = U
NORAD_CAT_ID   = 67771
ELEMENT_SET_NO = 999
REV_AT_EPOCH   = 492
BSTAR          = .83401135E-3
MEAN_MOTION_DOT = .27922E-3
MEAN_MOTION_DDOT = 0

CCSDS_OMM_VERS = 2.0
CREATION_DATE  = 
ORIGINATOR     = 

OBJECT_NAME    = KUIPER-00200
OBJECT_ID      = 2026-030J
CENTER_NAME    = EARTH
REF_FRAME      = TEME
TIME_SYSTEM    = UTC
MEAN_ELEMENT_THEORY = SGP/SGP4

EPOCH          = 2026-03-08T13:42:30.814272
MEAN_MOTION    = 15.37055046
ECCENTRICITY   = .00011426
INCLINATION    = 51.8816
RA_OF_ASC_NODE = 224.3296
ARG_OF_PERICENTER = 250.9358
MEAN_ANOMALY   = 109.1505

EPHEMERIS_TYPE = 0
CLASSIFICATION_TYPE = U
NORAD_CAT_ID   = 67772
ELEMENT_SET_NO = 999
REV_AT_EPOCH   = 492
BSTAR          = .92694099E-3
MEAN_MOTION_DOT = .33898E-3
MEAN_MOTION_DDOT = 0

CCSDS_OMM_VERS = 2.0
CREATION_DATE  = 
ORIGINATOR     = 

OBJECT_NAME    = KUIPER-00203
OBJECT_ID      = 2026-030K
CENTER_NAME    = EARTH
REF_FRAME      = TEME
TIME_SYSTEM    = UTC
MEAN_ELEMENT_THEORY = SGP/SGP4

EPOCH          = 2026-03-08T14:00:01.999872
MEAN_MOTION    = 15.15659516
ECCENTRICITY   = .00116832
INCLINATION    = 51.8849
RA_OF_ASC_NODE = 225.2868
ARG_OF_PERICENTER = 58.6880
MEAN_ANOMALY   = 193.2943

EPHEMERIS_TYPE = 0
CLASSIFICATION_TYPE = U
NORAD_CAT_ID   = 67773
ELEMENT_SET_NO = 999
REV_AT_EPOCH   = 348
BSTAR          = -.8601397E-1
MEAN_MOTION_DOT = -.1516295E-1
MEAN_MOTION_DDOT = 0

CCSDS_OMM_VERS = 2.0
CREATION_DATE  = 
ORIGINATOR     = 

OBJECT_NAME    = KUIPER-00205
OBJECT_ID      = 2026-030L
CENTER_NAME    = EARTH
REF_FRAME      = TEME
TIME_SYSTEM    = UTC
MEAN_ELEMENT_THEORY = SGP/SGP4

EPOCH          = 2026-03-08T13:57:33.647616
MEAN_MOTION    = 15.36376885
ECCENTRICITY   = .00031962
INCLINATION    = 51.8807
RA_OF_ASC_NODE = 224.3953
ARG_OF_PERICENTER = 17.5380
MEAN_ANOMALY   = 342.5716

EPHEMERIS_TYPE = 0
CLASSIFICATION_TYPE = U
NORAD_CAT_ID   = 67774
ELEMENT_SET_NO = 999
REV_AT_EPOCH   = 492
BSTAR          = .89065578E-3
MEAN_MOTION_DOT = .3184E-3
MEAN_MOTION_DDOT = 0

CCSDS_OMM_VERS = 2.0
CREATION_DATE  = 
ORIGINATOR     = 

OBJECT_NAME    = KUIPER-00208
OBJECT_ID      = 2026-030M
CENTER_NAME    = EARTH
REF_FRAME      = TEME
TIME_SYSTEM    = UTC
MEAN_ELEMENT_THEORY = SGP/SGP4

EPOCH          = 2026-03-08T15:05:23.290656
MEAN_MOTION    = 15.32298355
ECCENTRICITY   = .00150581
INCLINATION    = 51.8847
RA_OF_ASC_NODE = 224.7052
ARG_OF_PERICENTER = 56.4195
MEAN_ANOMALY   = 303.8225

EPHEMERIS_TYPE = 0
CLASSIFICATION_TYPE = U
NORAD_CAT_ID   = 67775
ELEMENT_SET_NO = 999
REV_AT_EPOCH   = 492
BSTAR          = .12270023E-2
MEAN_MOTION_DOT = .3879E-3
MEAN_MOTION_DDOT = 0

CCSDS_OMM_VERS = 2.0
CREATION_DATE  = 
ORIGINATOR     = 

OBJECT_NAME    = KUIPER-00209
OBJECT_ID      = 2026-030N
CENTER_NAME    = EARTH
REF_FRAME      = TEME
TIME_SYSTEM    = UTC
MEAN_ELEMENT_THEORY = SGP/SGP4

EPOCH          = 2026-03-08T13:44:58.978176
MEAN_MOTION    = 15.30253809
ECCENTRICITY   = .00131098
INCLINATION    = 51.8831
RA_OF_ASC_NODE = 225.0743
ARG_OF_PERICENTER = 63.9959
MEAN_ANOMALY   = 296.2373

EPHEMERIS_TYPE = 0
CLASSIFICATION_TYPE = U
NORAD_CAT_ID   = 67776
ELEMENT_SET_NO = 999
REV_AT_EPOCH   = 491
BSTAR          = .95942663E-3
MEAN_MOTION_DOT = .28302E-3
MEAN_MOTION_DDOT = 0

CCSDS_OMM_VERS = 2.0
CREATION_DATE  = 
ORIGINATOR     = 

OBJECT_NAME    = KUIPER-00213
OBJECT_ID      = 2026-030P
CENTER_NAME    = EARTH
REF_FRAME      = TEME
TIME_SYSTEM    = UTC
MEAN_ELEMENT_THEORY = SGP/SGP4

EPOCH          = 2026-03-08T15:05:25.180224
MEAN_MOTION    = 15.32369352
ECCENTRICITY   = .00151968
INCLINATION    = 51.8819
RA_OF_ASC_NODE = 224.6944
ARG_OF_PERICENTER = 62.8691
MEAN_ANOMALY   = 297.3842

EPHEMERIS_TYPE = 0
CLASSIFICATION_TYPE = U
NORAD_CAT_ID   = 67777
ELEMENT_SET_NO = 999
REV_AT_EPOCH   = 492
BSTAR          = -.73765289E-2
MEAN_MOTION_DOT = -.228383E-2
MEAN_MOTION_DDOT = 0

CCSDS_OMM_VERS = 2.0
CREATION_DATE  = 
ORIGINATOR     = 

OBJECT_NAME    = KUIPER-00214
OBJECT_ID      = 2026-030Q
CENTER_NAME    = EARTH
REF_FRAME      = TEME
TIME_SYSTEM    = UTC
MEAN_ELEMENT_THEORY = SGP/SGP4

EPOCH          = 2026-03-08T13:47:18.752640
MEAN_MOTION    = 15.36726044
ECCENTRICITY   = .00003968
INCLINATION    = 51.8845
RA_OF_ASC_NODE = 224.3568
ARG_OF_PERICENTER = 245.4844
MEAN_ANOMALY   = 114.6102

EPHEMERIS_TYPE = 0
CLASSIFICATION_TYPE = U
NORAD_CAT_ID   = 67778
ELEMENT_SET_NO = 999
REV_AT_EPOCH   = 492
BSTAR          = .88485682E-3
MEAN_MOTION_DOT = .31988E-3
MEAN_MOTION_DDOT = 0

CCSDS_OMM_VERS = 2.0
CREATION_DATE  = 
ORIGINATOR     = 

OBJECT_NAME    = KUIPER-00215
OBJECT_ID      = 2026-030R
CENTER_NAME    = EARTH
REF_FRAME      = TEME
TIME_SYSTEM    = UTC
MEAN_ELEMENT_THEORY = SGP/SGP4

EPOCH          = 2026-03-08T14:38:18.026304
MEAN_MOTION    = 15.34437354
ECCENTRICITY   = .00104072
INCLINATION    = 51.8848
RA_OF_ASC_NODE = 224.5853
ARG_OF_PERICENTER = 56.5731
MEAN_ANOMALY   = 303.6249

EPHEMERIS_TYPE = 0
CLASSIFICATION_TYPE = U
NORAD_CAT_ID   = 67779
ELEMENT_SET_NO = 999
REV_AT_EPOCH   = 492
BSTAR          = .8168983E-3
MEAN_MOTION_DOT = .27423E-3
MEAN_MOTION_DDOT = 0

CCSDS_OMM_VERS = 2.0
CREATION_DATE  = 
ORIGINATOR     = 

OBJECT_NAME    = KUIPER-00218
OBJECT_ID      = 2026-030S
CENTER_NAME    = EARTH
REF_FRAME      = TEME
TIME_SYSTEM    = UTC
MEAN_ELEMENT_THEORY = SGP/SGP4

EPOCH          = 2026-03-08T14:22:22.139904
MEAN_MOTION    = 15.35152136
ECCENTRICITY   = .00069212
INCLINATION    = 51.8833
RA_OF_ASC_NODE = 224.5119
ARG_OF_PERICENTER = 47.7932
MEAN_ANOMALY   = 312.3641

EPHEMERIS_TYPE = 0
CLASSIFICATION_TYPE = U
NORAD_CAT_ID   = 67780
ELEMENT_SET_NO = 999
REV_AT_EPOCH   = 492
BSTAR          = .80345506E-3
MEAN_MOTION_DOT = .27568E-3
MEAN_MOTION_DDOT = 0

