KUIPER-00197            
1 67769U 26030F   26067.58090049  .00047007  00000+0  13096-2 0  9990
2 67769  51.8832 224.3965 0001397  60.9633 299.1494 15.36323025  4925
KUIPER-00198            
1 67770U 26030G   26067.58647707  .00031258  00000+0  88455-3 0  9994
2 67770  51.8807 224.4266 0003354  43.3690 316.7560 15.36025333  4928
KUIPER-00199            
1 67771U 26030H   26067.61173886  .00027922  00000+0  83401-3 0  9990
2 67771  51.8817 224.5869 0010615  58.0903 302.1114 15.34340151  4928
KUIPER-00200            
1 67772U 26030J   26067.57118998  .00033898  00000+0  92694-3 0  9992
2 67772  51.8816 224.3296 0001142 250.9358 109.1505 15.37055046  4920
KUIPER-00203            
1 67773U 26030K   26067.58335648 -.01516295  00000+0 -86014-1 0  9994
2 67773  51.8849 225.2868 0011683  58.6880 193.2943 15.15659516  3484
KUIPER-00205            
1 67774U 26030L   26067.58163944  .00031840  00000+0  89066-3 0  9990
2 67774  51.8807 224.3953 0003196  17.5380 342.5716 15.36376885  4928
KUIPER-00208            
1 67775U 26030M   26067.62874179  .00038790  00000+0  12270-2 0  9998
2 67775  51.8847 224.7052 0015058  56.4195 303.8225 15.32298355  4929
KUIPER-00209            
1 67776U 26030N   26067.57290484  .00028302  00000+0  95943-3 0  9991
2 67776  51.8831 225.0743 0013109  63.9959 296.2373 15.30253809  4911
KUIPER-00213            
1 67777U 26030P   26067.62876366 -.00228383  00000+0 -73765-2 0  9997
2 67777  51.8819 224.6944 0015196  62.8691 297.3842 15.32369352  4922
KUIPER-00214            
1 67778U 26030Q   26067.57452260  .00031988  00000+0  88486-3 0  9993
2 67778  51.8845 224.3568 0000396 245.4844 114.6102 15.36726044  4925
KUIPER-00215            
1 67779U 26030R   26067.60993086  .00027423  00000+0  81690-3 0  9993
2 67779  51.8848 224.5853 0010407  56.5731 303.6249 15.34437354  4921
KUIPER-00218            
1 67780U 26030S   26067.59886736  .00027568  00000+0  80346-3 0  9993
2 67780  51.8833 224.5119 0006921  47.7932 312.3641 15.35152136  4929
